[{"OBJECT_NAME":"JILIN-1 GAOFEN 03D47","OBJECT_ID":"2022-167L","EPOCH":"2026-03-09T22:56:46.924224","MEAN_MOTION":15.31686941,"ECCENTRICITY":0.00089304,"INCLINATION":97.6835,"RA_OF_ASC_NODE":234.6581,"ARG_OF_PERICENTER":110.4031,"MEAN_ANOMALY":249.8169,"EPHEMERIS_TYPE":0,"CLASSIFICATION_TYPE":"U","NORAD_CAT_ID":54692,"ELEMENT_SET_NO":999,"REV_AT_EPOCH":18014,"BSTAR":0.00047294748,"MEAN_MOTION_DOT":0.00014417,"MEAN_MOTION_DDOT":0},{"OBJECT_NAME":"STARLINK-5372","OBJECT_ID":"2022-177U","EPOCH":"2026-03-09T22:00:01.999584","MEAN_MOTION":15.19742249,"ECCENTRICITY":0.00017103,"INCLINATION":42.9998,"RA_OF_ASC_NODE":131.0479,"ARG_OF_PERICENTER":265.6963,"MEAN_ANOMALY":27.2718,"EPHEMERIS_TYPE":0,"CLASSIFICATION_TYPE":"U","NORAD_CAT_ID":54838,"ELEMENT_SET_NO":999,"REV_AT_EPOCH":567,"BSTAR":0.047041627,"MEAN_MOTION_DOT":0.01110443,"MEAN_MOTION_DDOT":0}]
